#dP2020  5  4  0  0  0.00000000      97 __u+U IGS14 FIT  IAC
## 2104  86400.00000000   900.00000000 58973 0.0000000000000
+  124   C01C02C03C04C05C06C07C08C09C10C11C12C13C14C16C19C20
+        C21C22C23C24C25C26C27C28C29C30C32C33C34C35C36C37C38
+        C39C40C43C44C45C46C60E01E02E03E04E05E07E08E09E11E12
+        E13E14E15E18E19E21E24E25E26E27E30E31E33E36G01G02G03
+        G04G05G06G07G08G09G10G11G12G13G14G15G16G17G18G19G20
+        G21G22G23G24G25G26G27G28G29G30G31G32J01J02J03J07R01
+        R02R03R04R05R07R08R09R11R12R13R14R15R16R17R18R19R20
+        R21R22R23R24R26  0  0  0  0  0  0  0  0  0  0  0  0
++         0  0  0  0  0  0  0  0  0  0  0  0  0  0  0  0  0
++         0  0  0  0  0  0  0  0  0  0  0  0  0  0  0  0  0
++         0  0  0  0  0  0  0  0  0  0  0  0  0  0  0  0  0
++         0  0  0  0  0  0  0  0  0  0  0  0  0  0  0  0  0
++         0  0  0  0  0  0  0  0  0  0  0  0  0  0  0  0  0
++         0  0  0  0  0  0  0  0  0  0  0  0  0  0  0  0  0
++         0  0  0  0  0  0  0  0  0  0  0  0  0  0  0  0  0
++         0  0  0  0  0  0  0  0  0  0  0  0  0  0  0  0  0
%c M  cc GPS ccc cccc cccc cccc cccc ccccc ccccc ccccc ccccc
%c cc cc ccc ccc cccc cccc cccc cccc ccccc ccccc ccccc ccccc
%f  1.2500000  1.025000000  0.00000000000  0.000000000000000
%f  0.0000000  0.000000000  0.00000000000  0.000000000000000
%i    0    0    0    0      0      0      0      0         0
%i    0    0    0    0      0      0      0      0         0
/* INFORMATION & ANALYSIS CENTER (IAC)            FINAL DATA
/* S/V CLOCKS ARE ALIGNED TO GNSS TIME                      
/* G:C1WC2W R:C1PC2P E:C1XC5X C:C2IC6I J:C1CC2S             
/* PCV:IGS14_2101 OL/AL:FES2004  NONE     YN ORB:CoN CLK:CoN
*  2020 05 04 18 15  0.00000000
PC01 -34383.715966  24389.503344   -199.100086   -544.971390
PC02   4445.990150  41926.922946    910.907639    372.658355
PC03 -14807.185289  39522.552859    -88.812838    595.830720
PC04 -39628.034762  14415.410353   -530.025426   -232.670668
PC05  21926.046862  36034.924904    773.553727   -226.333960
PC06  -8367.205946  25690.487626  32861.612893    727.487396
PC07 -24782.442068  26319.218588 -21904.028325     -6.734299
PC08 -15967.518693  37710.038486  -9216.828957   -234.951101
PC09   6460.624169  34114.454560  24453.762537    517.690754
PC10  -8933.482536  28093.149986 -30109.153540   -922.625453
PC11  -6235.235131  17471.001608 -20777.545187   -344.044496
PC12 -17070.401408  -1165.954083 -22019.532792    364.833672
PC13  -6930.472583  41141.427100   5180.425870    417.775753
PC14 -16215.758664  12861.327672  18781.550712    368.982795
PC16  -4451.494396  27399.783176  31864.467496   -655.839403
PC19   5952.132728 -15492.428979 -22398.835085    402.319578
PC20  23209.701196  -8566.564333 -12854.036025   -886.976194
PC21 -27266.581894  -3747.634616  -4665.785087   -361.324061
PC22 -15144.669510 -13586.530891 -19102.263574   -815.792973
PC23   5556.873345  18354.212973 -20272.038314   -887.123545
PC24 -19423.488021  16967.265670  10625.533049   -833.629218
PC25  -8920.300485  25416.866372  -7261.988060   -605.583142
PC26 -17761.320055    149.360531  21510.859436    668.292284
PC27  19106.332531  10967.922548  17125.810748    324.272072
PC28  13721.689825  24263.997855   1277.514109    315.338887
PC29  -1222.138319 -23330.514587  15250.230553    223.934236
PC30  13173.796810  -8920.437322  22922.670961    311.933103
PC32  27270.105236   3577.341086   4703.458078   -900.890592
PC33  -5982.963224  15561.916934  22394.466055   -847.399549
PC34 -12934.733223   9411.859446 -22874.304049   -689.881389
PC35 -14443.419447 -23827.598411  -1115.354628   -860.528273
PC36   9666.201921 -25207.503885   7072.934417   -826.568715
PC37  17506.352942    902.285782 -21698.728490   -842.515471
PC38 -13218.820401  39787.867180  -4012.083712     76.007772
PC39   -277.681924  28757.923559  30890.274798     15.177063
PC40 -15140.201322  23323.035543 -31750.921814 999999.999999
PC43    798.401040  23276.651678 -15396.684440   -179.070650
PC44 -19529.270059 -10411.729229 -16981.198442 999999.999999
PC45  -5499.933917 -18313.194555  20333.591388    124.062332
PC46  19231.188169 -17444.365736 -10260.290013    852.217730
PC60   7295.596275  41486.796823  -2091.236651 999999.999999
PE01 -20529.388952  19864.013522  -7756.397825   -849.607883
PE02  20485.398865 -19889.597468   7823.788655    131.018833
PE03  12675.733214 -12468.729485 -23656.821689   -295.056824
PE04   8149.802273  20035.797037  20217.133315   -518.736496
PE05  26337.395255   2512.755774 -13262.616160   -383.060425
PE07 -24517.271591 -15892.963256  -4770.533449   -377.240589
PE08  -8578.183835 -19890.457593 -20171.235734   6183.006367
PE09  24650.600133  15673.416587   4736.490172   6071.918743
PE11  13517.398213  18931.628483  18313.475120   2640.205644
PE12   2716.306476  29479.031865    768.028754   5821.807103
PE13 -13447.896766 -19078.655284 -18189.529057    400.581896
PE14   2856.728367  24355.568405 -18351.901444  -1001.783186
PE15  -2955.939964 -29431.015654   -952.118307    868.208030
PE18 -15216.341788 -21542.041412   4682.975853  -1100.572088
PE19 -14611.885849  11003.334749  23282.808857  -1588.901937
PE21 -26110.057982   8776.833293  10831.174040   -597.102825
PE24  16358.883120   7954.719685 -23370.015087   5473.091750
PE25  26097.179876  -8675.360510 -10947.285307   -510.079124
PE26 -16182.564123   2844.832858 -24616.837495   3227.399361
PE27 -16515.008198  -7678.540572  23331.558102    227.063802
PE30   3141.449356 -19665.004827  21890.418945   3933.816661
PE31  -2732.639001  19539.881938 -22063.198333   -472.467078
PE33  -9265.105310  22516.888633 -16835.479671   -467.673061
PE36  16050.670957  -2458.081612  24754.074865    564.472219
PG01  13921.758252 -16417.652080  15111.176710   -373.423373
PG02 -13898.178710  -6803.941027 -20958.160395   -450.443490
PG03  21924.868985 -12793.614181  -7685.679668   -165.350281
PG04  11877.657476  -9656.065520 -21695.327941    -84.959084
PG05 -24012.920803   -138.247391 -11699.157048    -12.057801
PG06  -8516.629814 -17704.832550 -17793.786943   -265.421064
PG07   5025.304113 -25798.722416    928.403120   -273.566840
PG08  19746.063468    910.479173  17877.605248    -32.864487
PG09    868.638571 -17812.242410 -19727.407761   -210.857507
PG10   6015.501972  13965.571453  21871.307481   -330.781750
PG11  14528.334588  -7215.623957  20567.894171   -286.668071
PG12 -23243.332316  10725.865578  -6994.955439    121.743366
PG13 -20693.967251  -9742.290771  13460.585768      7.342936
PG14  18433.445082  19258.311566   -110.350130    -15.237598
PG15 -19893.354491   1681.388690  17382.828041   -233.489076
PG16  24706.723378   1470.864959 -10444.901019   -154.266710
PG17 -12867.968622 -21552.506845   9170.753433    259.411827
PG18  -6718.960416  25669.828942   -963.346077    178.864307
PG19 -17667.234012 -19830.369971    402.881347   -163.250606
PG20  -5836.875346  18008.184095  18466.543801    527.739477
PG21  -2810.486844  26555.945050   1288.789276     -5.706279
PG22  24851.533701  -8986.995469   1969.803015   -783.297167
PG23   2505.688080 -16845.615566 -19925.268019   -116.884960
PG24 -14249.673055  15043.545992  16211.974704    -12.586286
PG25 -15259.659114  15849.276536 -14921.287387      1.489650
PG26  17468.999926   7820.684983 -18539.687538    200.118601
PG27  22232.747910  10913.984262   9906.168895   -284.779985
PG28  -6249.247109 -13979.425144  22275.459066    720.153688
PG29  -4530.901942  15444.483160 -21164.959166    -96.592312
PG30  -2444.891763 -23941.592167  11035.514462   -212.892257
PG31   9552.071089  16253.262393 -18560.621697    -40.248143
PG32  14848.599741  20636.688620   8024.776024    273.679475
PJ01 -29370.128670  23543.475457  24066.919848   -310.597811
PJ02 -34133.280164  24705.574714   4041.756161     -2.700741
PJ03 -21335.498543  20701.559653 -25331.614870     -2.628695
PJ07 -25408.952962  33657.441665     35.503132     -0.002697
PR01  14729.659190  11393.644604  17430.959545     61.012691
PR02  25067.573653   4472.560062  -1892.501099    425.066523
PR03  17987.898446  -4716.231746 -17436.653820     14.438363
PR04    644.558411 -10919.302834 -23011.494225     47.942850
PR05 -16949.901106 -11042.479654 -15509.430405     49.859478
PR07 -17437.349080   5058.106832  17940.079435    -36.158145
PR08   -681.760586  11073.437930  23028.104687    -52.012121
PR09 -17795.637546   7850.500694  16554.391478    130.802217
PR11  -8864.285199  19797.208572 -13450.682899    -22.439666
PR12   4676.336680  10838.211778 -22586.497899    128.028072
PR13  16217.121095  -4755.230724 -19124.819519    -38.255953
PR14  18214.705592 -17338.119063  -4225.181606     50.856178
PR15   9618.308377 -19851.623052  12826.649205    106.423416
PR16  -5341.921690 -10552.966423  22587.660389     -3.276943
PR17   7366.808225 -10145.577521  22226.368155    322.226493
PR18  -1645.500608 -22560.171341  11742.302700     34.231121
PR19  -9049.390749 -23383.503145  -4683.571487    -91.770961
PR20 -12161.331541  -9162.197113 -20443.511497   -410.826869
PR21  -6902.149596  10963.692919 -21970.578773   -122.318577
PR22   3031.871783  23615.991339  -9320.748282      0.345279
PR23  11476.903085  19889.786059  11105.452532    303.377656
PR24  12576.847288   8260.315329  20610.670208     -2.996245
PR26 -12553.503290 -13376.097313 -17725.292165   -397.298654
EOF
